satname,norad_id,inclination_deg,eccentricity,mean_motion_rev_per_day,perigee_km,apogee_km,l1,l2
STARLINK-1452,45669,53.0328,0.0007468,15.41489987,436.6180531737946,446.80417831947307,1 45669U 20035N   26046.72450083  .00072875  00000+0  17043-2 0  9992,2 45669  53.0328 126.0869 0007468 324.5626  35.4881 15.41489987315978
STARLINK-1453,45670,53.0498,0.0007431,15.48117282,417.18057339324605,427.287284667972,1 45670U 20035P   26046.91668981  .00074722  00000+0  13943-2 0  9991,2 45670  53.0498 117.8257 0007431 318.8074  56.8547 15.48117282  5953
STARLINK-1454,45671,53.0526,0.0006635,15.46727839,421.79113809942464,430.82063380908585,1 45671U 20035Q   26046.67995093  .00082856  00000+0  16201-2 0  9999,2 45671  53.0526 158.2529 0006635 333.6047  26.4621 15.46727839315501
STARLINK-1456,45673,53.0508,0.0003836,15.4507751,428.5382912481009,433.7623764906457,1 45673U 20035S   26046.61179714  .00038856  00000+0  81363-3 0  9992,2 45673  53.0508 152.0480 0003836 258.3297 101.7278 15.45077510315600
STARLINK-1457,45674,53.0483,0.0008762,15.72817407,344.9532468014595,356.7451221911715,1 45674U 20035T   26046.91668981  .00170875  00000+0  12145-2 0  9994,2 45674  53.0483 131.0003 0008762 347.5761  39.8460 15.72817407  5899
STARLINK-1458,45675,53.0547,0.0003968,15.40021225,443.3387793391157,448.7544514562951,1 45675U 20035U   26046.70018497  .00072439  00000+0  17797-2 0  9998,2 45675  53.0547 159.6779 0003968   6.1674 353.9378 15.40021225315466
STARLINK-1460,45676,53.057,0.0001191,15.06409513,546.3575965760419,548.0072076576262,1 45676U 20035V   26046.80676821  .00000900  00000+0  79269-4 0  9999,2 45676  53.0570 164.8550 0001191  85.0351 275.0774 15.06409513315390
STARLINK-1392,45677,53.0567,0.0001368,15.06403314,546.2540147309419,548.1487873174619,1 45677U 20035W   26046.55244487  .00001587  00000+0  12540-3 0  9991,2 45677  53.0567 165.9968 0001368  76.9154 283.1987 15.06403314315397
STARLINK-1394,45679,53.053,0.0002944,15.43626197,433.4118033468085,437.42362436232634,1 45679U 20035Y   26046.65687382  .00073195  00000+0  15948-2 0  9997,2 45679  53.0530 141.8810 0002944 243.9992 116.0710 15.43626197315749
STARLINK-1402,45685,53.049,0.000301,15.4152784,439.54673138598173,443.6522127421649,1 45685U 20035AE  26046.50340423  .00087261  00000+0  20340-2 0  9991,2 45685  53.0490 128.7472 0003010 204.8567 155.2293 15.41527840315922
STARLINK-1404,45686,53.1609,0.0001308,15.30196395,474.3294134620528,476.1222531792491,1 45686U 20035AF  26046.91668981 -.00016907  00000+0 -56003-3 0  9996,2 45686  53.1609 150.8324 0001308  82.4014 115.8492 15.30196395  5859
STARLINK-1413,45689,53.1618,0.0001275,15.301996,474.34246120635635,476.09006628861243,1 45689U 20035AJ  26046.56046325  .00000459  00000+0  27624-4 0  9993,2 45689  53.1618 152.3644 0001275  90.6993 269.4153 15.30199600315502
STARLINK-1417,45693,53.0528,0.0004215,15.1125994,529.4436994867774,535.2692454840826,1 45693U 20035AN  26046.65033360  .00026844  00000+0  15889-2 0  9997,2 45693  53.0528 154.0935 0004215 170.2852 189.8222 15.11259940315565
STARLINK-1420,45695,53.0546,0.0002609,15.47973586,420.88044124273074,424.4290943871765,1 45695U 20035AQ  26046.69772424  .00027924  00000+0  53247-3 0  9995,2 45695  53.0546 128.0158 0002609  33.1171 326.9999 15.47973586315946
STARLINK-1422,45696,53.1625,0.0001478,15.30198944,474.20529654491384,476.2311483486683,1 45696U 20035AR  26046.69847293  .00001579  00000+0  65437-4 0  9996,2 45696  53.1625 151.7291 0001478  72.2219 287.8943 15.30198944315603
STARLINK-1351,45697,53.055,0.0001552,15.49339328,417.60272107750734,419.7124461162557,1 45697U 20035AS  26046.54352986  .00027589  00000+0  50178-3 0  9995,2 45697  53.0550 127.9447 0001552  65.4077 294.7092 15.49339328315938
STARLINK-1398,45699,53.0408,0.0005111,15.82533017,319.85508878031123,326.70527742487775,1 45699U 20035AU  26046.91668981  .00315347  00000+0  14285-2 0  9993,2 45699  53.0408  49.8584 0005111  33.3180 212.6016 15.82533017  5962
STARLINK-1400,45700,53.0532,0.0005401,15.46529117,423.21337248799045,430.564161321402,1 45700U 20035AV  26046.80643336  .00079684  00000+0  15701-2 0  9996,2 45700  53.0532 127.7019 0005401  11.4236 348.6892 15.46529117315954
STARLINK-1403,45701,53.0568,0.0001641,15.06407494,546.0521440735101,548.3250359321482,1 45701U 20035AW  26046.64735520  .00001567  00000+0  12408-3 0  9993,2 45701  53.0568 135.5716 0001641 104.4995 255.6176 15.06407494315829
STARLINK-1407,45703,53.0366,0.0013184,15.5598941,390.3427167241298,408.2134047562895,1 45703U 20035AY  26046.36733116  .00046773  00000+0  66139-3 0  9991,2 45703  53.0366  64.1161 0013184  22.3830 337.7753 15.55989410316819
STARLINK-1411,45706,53.0457,0.0004859,15.57846859,390.5992387409724,397.1802943527018,1 45706U 20035BB  26046.52354697  .00097969  00000+0  12816-2 0  9990,2 45706  53.0457  89.3839 0004859  35.9003 324.2334 15.57846859316463
STARLINK-1423,45710,53.0541,0.0004432,15.48510717,418.06860525826414,424.0954329968199,1 45710U 20035BF  26046.48187129  .00102475  00000+0  18776-2 0  9994,2 45710  53.0541 128.6469 0004432  18.7882 341.3288 15.48510717315906
STARLINK-1433,45711,53.0526,0.000501,15.50583331,411.61843359781506,418.42517872158714,1 45711U 20035BG  26046.72978007  .00083688  00000+0  14303-2 0  9991,2 45711  53.0526 126.8331 0005010  17.2884 342.8294 15.50583331315950
STARLINK-1434,45712,53.0511,0.0003211,15.24498943,490.0843293677881,494.4965178592329,1 45712U 20035BH  26046.68670407  .00044543  00000+0  17911-2 0  9995,2 45712  53.0511 121.7630 0003211   3.4154 356.6864 15.24498943316030
STARLINK-1465,45731,53.056,0.0004634,15.46512193,423.7849413157792,430.0918852087907,1 45731U 20038B   26046.75975450  .00079041  00000+0  15588-2 0  9992,2 45731  53.0560 328.0850 0004634 127.9495 232.1931 15.46512193312982
STARLINK-1471,45735,53.0456,0.0003912,15.475856,421.1304633698628,426.4522921326152,1 45735U 20038F   26046.76250105  .00029140  00000+0  56264-3 0  9992,2 45735  53.0456 246.9652 0003912 145.0838 215.0426 15.47585600314130
STARLINK-1474,45738,53.0203,0.0008676,16.09986449,241.13260051687666,252.6283308233078,1 45738U 20038J   26046.53610950  .00897904  46799-3  92989-3 0  9992,2 45738  53.0203 175.8893 0008676 321.2001  38.8408 16.09986449315094
STARLINK-1480,45741,53.0544,0.0010723,15.44841181,424.54242686743964,439.1471137720664,1 45741U 20038M   26046.75633190  .00074146  00000+0  15473-2 0  9999,2 45741  53.0544 321.9204 0010723 105.0547 255.1646 15.44841181313081
STARLINK-1500,45744,53.0379,0.0003922,15.33500549,462.6938781796116,468.06193127087863,1 45744U 20038Q   26046.07118873  .00019768  00000+0  61161-3 0  9998,2 45744  53.0379 298.7409 0003922 142.1765 217.9512 15.33500549313340
STARLINK-1504,45746,53.0218,0.0003913,15.51609274,409.37000518667264,414.683987530223,1 45746U 20038S   26046.79698317  .00032662  00000+0  54643-3 0  9990,2 45746  53.0218 247.6757 0003913 132.4851 227.6488 15.51609274314112
STARLINK-1506,45747,53.0771,0.0004398,15.25488496,486.2986585621429,492.3392728295694,1 45747U 20038T   26046.12670913  .00008252  00000+0  33460-3 0  9992,2 45747  53.0771 306.6629 0004398 152.7503 207.3726 15.25488496313243
STARLINK-1464,45751,53.053,0.0004198,15.41790745,437.9615858958214,443.6867857074203,1 45751U 20038X   26046.73573853  .00058288  00000+0  13549-2 0  9998,2 45751  53.0530 308.8233 0004198 134.1681 225.9669 15.41790745313260
STARLINK-1477,45754,53.0521,0.0002003,15.13007728,525.6504576177786,528.4166689454287,1 45754U 20038AA  26046.18310789  .00030195  00000+0  17000-2 0  9990,2 45754  53.0521 315.1446 0002003  77.4161 282.7055 15.13007728313121
STARLINK-1478,45755,53.0546,0.0007716,15.5067074,409.5251192398873,420.00792795750476,1 45755U 20038AB  26046.04036833  .00065421  00000+0  11182-2 0  9996,2 45755  53.0546 307.0049 0007716 122.4380 237.7376 15.50670740313215
STARLINK-1484,45756,53.0027,0.0004536,15.88657401,303.0142019680934,309.0780929194543,1 45756U 20038AC  26046.91668981  .00219469  00000+0  74861-3 0  9995,2 45756  53.0027 168.3417 0004536 326.5871 131.0777 15.88657401  6058
STARLINK-1493,45759,53.0541,0.0002605,15.43969576,432.6327850404332,436.1821207003786,1 45759U 20038AF  26046.80215302  .00067590  00000+0  14574-2 0  9991,2 45759  53.0541 308.9948 0002605 131.3651 228.7579 15.43969576313253
STARLINK-1494,45760,53.0491,0.0002016,15.69547329,358.8338455733856,361.5507399442258,1 45760U 20038AG  26046.81006053  .00083421  00000+0  69104-3 0  9996,2 45760  53.0491 260.0361 0002016 212.0164 148.0730 15.69547329313954
STARLINK-1502,45764,53.0538,0.0001554,15.43429026,434.93906660999255,437.056899762767,1 45764U 20038AL  26046.91668981  .00554286  00000+0  11357-1 0  9992,2 45764  53.0538 309.7957 0001554  88.5599  46.0033 15.43429026  5862
STARLINK-1470,45772,53.0498,0.0002543,15.25907268,486.316357929335,489.8085069606768,1 45772U 20038AU  26046.61581907  .00042981  00000+0  16578-2 0  9995,2 45772  53.0498 276.5987 0002543 112.5051 247.6216 15.25907268313706
STARLINK-1482,45773,53.156,0.0001516,15.29357232,476.69322841052417,478.77192806664516,1 45773U 20038AV  26046.66784513  .00000784  00000+0  39517-4 0  9994,2 45773  53.1560 293.2847 0001516  86.5313 273.5860 15.29357232313470
STARLINK-1496,45780,53.0543,0.000843,15.4422863,427.9032009626153,439.3878663143296,1 45780U 20038BC  26046.79214145  .00080941  00000+0  17236-2 0  9990,2 45780  53.0543 282.2663 0008430 127.4205 232.7569 15.44228630313625
STARLINK-1513,45786,53.1567,0.0001435,15.29405242,476.60530440939147,478.572897800409,1 45786U 20038BJ  26046.67739286  .00018692  00000+0  65745-3 0  9994,2 45786  53.1567 293.3723 0001435  94.7779 265.3386 15.29405242313479
STARLINK-1522,46027,53.0554,0.0001232,15.06401235,546.3545703677219,548.0609753197505,1 46027U 20055A   26046.80124796  .00001972  00000+0  15122-3 0  9998,2 46027  53.0554 224.8787 0001232  95.8960 264.2169 15.06401235305584
